NORAD_CAT_ID,OBJECT_NAME,OBJECT_TYPE,EPOCH,MEAN_MOTION,ECCENTRICITY,INCLINATION,RA_OF_ASC_NODE,ARG_OF_PERICENTER,MEAN_ANOMALY,BSTAR,MEAN_MOTION_DOT,MEAN_MOTION_DDOT,TLE_LINE0,TLE_LINE1,TLE_LINE2,SEMIMAJOR_AXIS,PERIOD,APOGEE,PERIGEE,DECAYED
53935.0,STARLINK-5000,PAYLOAD,2024-03-01 13:16:02,15.0882448,0.0001472,53.2186,2.6286,99.0014,261.1145,0.00030364,4.546e-05,0.0,0 STARLINK-5000,1 53935U 22119BB  24061.55280124  .00004546  00000-0  30364-3 0  9998,2 53935  53.2186   2.6286 0001472  99.0014 261.1145 15.08824480 80742,6917.928,95.439,540.811,538.775,0.0
53935.0,STARLINK-5000,PAYLOAD,2024-03-02 03:34:29,15.08848711,0.000139,53.2185,359.9476,94.2617,265.8534,4.7026e-05,4.61e-06,0.0,0 STARLINK-5000,1 53935U 22119BB  24062.14895120  .00000461  00000-0  47026-4 0  9998,2 53935  53.2185 359.9476 0001390  94.2617 265.8534 15.08848711 80415,6917.854,95.437,540.68,538.757,0.0
53935.0,STARLINK-5000,PAYLOAD,2024-03-03 01:49:53,15.08832025,0.0001151,53.2185,355.7865,94.2584,265.8539,0.00011295,1.51e-05,0.0,0 STARLINK-5000,1 53935U 22119BB  24063.07631846  .00001510  00000-0  11295-3 0  9998,2 53935  53.2185 355.7865 0001151  94.2584 265.8539 15.08832025 80550,6917.905,95.438,540.566,538.974,0.0
53935.0,STARLINK-5000,PAYLOAD,2024-03-03 05:00:39,15.08849869,0.0001546,53.2195,355.1902,114.1083,246.0071,1.3638e-05,-7.1e-07,0.0,0 STARLINK-5000,1 53935U 22119BB  24063.20878920 -.00000071  00000-0  13638-4 0  9995,2 53935  53.2195 355.1902 0001546 114.1083 246.0071 15.08849869 80579,6917.85,95.437,540.785,538.646,0.0
53935.0,STARLINK-5000,PAYLOAD,2024-03-03 19:19:08,15.08837673,0.0001649,53.2215,352.5122,103.9118,256.2058,1.0632e-06,-2.71e-06,0.0,0 STARLINK-5000,1 53935U 22119BB  24063.80495642 -.00000271  00000-0  10632-5 0  9991,2 53935  53.2215 352.5122 0001649 103.9118 256.2058 15.08837673 80664,6917.888,95.438,540.893,538.612,0.0
53935.0,STARLINK-5000,PAYLOAD,2024-03-04 01:40:39,15.08854187,0.0001835,53.22,351.3264,91.3855,268.7347,9.1254e-05,1.165e-05,0.0,0 STARLINK-5000,1 53935U 22119BB  24064.06990495  .00001165  00000-0  91254-4 0  9996,2 53935  53.2200 351.3264 0001835  91.3855 268.7347 15.08854187 80700,6917.837,95.437,540.971,538.433,0.0
53935.0,STARLINK-5000,PAYLOAD,2024-03-04 22:20:40,15.08847532,0.0001783,53.2194,347.4593,114.532,245.5858,4.8336e-06,-2.11e-06,0.0,0 STARLINK-5000,1 53935U 22119BB  24064.93102666 -.00000211  00000-0  48336-5 0  9993,2 53935  53.2194 347.4593 0001783 114.5320 245.5858 15.08847532 81257,6917.857,95.437,540.956,538.489,0.0
53935.0,STARLINK-5000,PAYLOAD,2024-03-05 01:31:26,15.08847778,0.0001475,53.2193,346.8644,99.5724,260.5435,1.281e-05,-8.4e-07,0.0,0 STARLINK-5000,1 53935U 22119BB  24065.06350627 -.00000084  00000-0  12810-4 0  9995,2 53935  53.2193 346.8644 0001475  99.5724 260.5435 15.08847778 80859,6917.857,95.437,540.742,538.701,0.0
53935.0,STARLINK-5000,PAYLOAD,2024-03-05 19:00:42,15.08834771,0.0001588,53.2181,343.5921,117.4296,242.6858,-8.7486e-05,-1.68e-05,0.0,0 STARLINK-5000,1 53935U 22119BB  24065.79215983 -.00001680  00000-0 -87486-4 0  9995,2 53935  53.2181 343.5921 0001588 117.4296 242.6858 15.08834771 80968,6917.896,95.438,540.86,538.663,0.0
53935.0,STARLINK-5000,PAYLOAD,2024-03-06 01:22:14,15.08840346,0.0001653,53.2191,342.4042,115.2894,244.827,-8.3076e-05,-1.61e-05,0.0,0 STARLINK-5000,1 53935U 22119BB  24066.05711570 -.00001610  00000-0 -83076-4 0  9992,2 53935  53.2191 342.4042 0001653 115.2894 244.8270 15.08840346 81007,6917.879,95.438,540.888,538.601,0.0
53935.0,STARLINK-5000,PAYLOAD,2024-03-07 02:48:25,15.08836685,0.0001473,53.2195,337.6497,107.2107,252.9047,-1.3052e-05,-4.96e-06,0.0,0 STARLINK-5000,1 53935U 22119BB  24067.11696060 -.00000496  00000-0 -13052-4 0  9994,2 53935  53.2195 337.6497 0001473 107.2107 252.9047 15.08836685 81169,6917.891,95.438,540.775,538.737,0.0
53935.0,STARLINK-5000,PAYLOAD,2024-03-07 10:45:21,15.08836754,0.0001258,53.2186,336.1606,92.4904,267.6233,-2.1272e-06,-3.22e-06,0.0,0 STARLINK-5000,1 53935U 22119BB  24067.44816068 -.00000322  00000-0 -21272-5 0  9994,2 53935  53.2186 336.1606 0001258  92.4904 267.6233 15.08836754 81635,6917.89,95.438,540.626,538.885,0.0
53935.0,STARLINK-5000,PAYLOAD,2024-03-08 01:03:50,15.08831134,0.0001572,53.2194,333.4845,94.1973,265.9199,4.4621e-05,4.22e-06,0.0,0 STARLINK-5000,1 53935U 22119BB  24068.04432914  .00000422  00000-0  44621-4 0  9996,2 53935  53.2194 333.4845 0001572  94.1973 265.9199 15.08831134 81306,6917.907,95.438,540.86,538.685,0.0
53935.0,STARLINK-5000,PAYLOAD,2024-03-08 10:36:08,15.08837637,0.0001624,53.22,331.6996,88.8243,271.2935,0.00010615,1.402e-05,0.0,0 STARLINK-5000,1 53935U 22119BB  24068.44176498  .00001402  00000-0  10615-3 0  9996,2 53935  53.2200 331.6996 0001624  88.8243 271.2935 15.08837637 81367,6917.888,95.438,540.876,538.629,0.0
53935.0,STARLINK-5000,PAYLOAD,2024-03-09 10:26:55,15.08842012,0.0001373,53.218,327.2398,91.4716,268.6433,6.0096e-05,6.69e-06,0.0,0 STARLINK-5000,1 53935U 22119BB  24069.43536250  .00000669  00000-0  60096-4 0  9995,2 53935  53.2180 327.2398 0001373  91.4716 268.6433 15.08842012 81936,6917.874,95.437,540.689,538.789,0.0
53935.0,STARLINK-5000,PAYLOAD,2024-03-10 00:45:23,15.08846219,0.0001319,53.2188,324.5591,103.2686,256.8453,5.3278e-05,5.6e-06,0.0,0 STARLINK-5000,1 53935U 22119BB  24070.03151849  .00000560  00000-0  53278-4 0  9994,2 53935  53.2188 324.5591 0001319 103.2686 256.8453 15.08846219 81605,6917.861,95.437,540.639,538.814,0.0
53935.0,STARLINK-5000,PAYLOAD,2024-03-10 10:17:42,15.08838804,0.0001307,53.2184,322.7768,102.5443,257.5695,-9.9224e-06,-4.46e-06,0.0,0 STARLINK-5000,1 53935U 22119BB  24070.42896466 -.00000446  00000-0 -99224-5 0  9995,2 53935  53.2184 322.7768 0001307 102.5443 257.5695 15.08838804 81660,6917.884,95.438,540.653,538.845,0.0
53935.0,STARLINK-5000,PAYLOAD,2024-03-10 13:28:28,15.08839419,0.0001031,53.2169,322.1823,102.232,257.8787,-7.3893e-05,-1.464e-05,0.0,0 STARLINK-5000,1 53935U 22119BB  24070.56144493 -.00001464  00000-0 -73893-4 0  9990,2 53935  53.2169 322.1823 0001031 102.2320 257.8787 15.08839419 82102,6917.882,95.438,540.46,539.034,0.0
53935.0,STARLINK-5000,PAYLOAD,2024-03-10 23:00:47,15.08832059,9.63e-05,53.2161,320.3992,95.246,264.8642,3.9881e-05,3.47e-06,0.0,0 STARLINK-5000,1 53935U 22119BB  24070.95888734  .00000347  00000-0  39881-4 0  9992,2 53935  53.2161 320.3992 0000963  95.2460 264.8642 15.08832059 82167,6917.905,95.438,540.436,539.103,0.0
53935.0,STARLINK-5000,PAYLOAD,2024-03-11 10:08:29,15.08846535,0.0001381,53.2164,318.3179,91.9001,268.215,-6.9258e-05,-1.39e-05,0.0,0 STARLINK-5000,1 53935U 22119BB  24071.42256127 -.00001390  00000-0 -69258-4 0  9992,2 53935  53.2164 318.3179 0001381  91.9001 268.2150 15.08846535 82237,6917.86,95.437,540.681,538.77,0.0
53935.0,STARLINK-5000,PAYLOAD,2024-03-12 16:20:49,15.08831633,0.000135,53.2178,312.6671,98.8237,261.2909,9.5232e-05,1.228e-05,0.0,0 STARLINK-5000,1 53935U 22119BB  24072.68112687  .00001228  00000-0  95232-4 0  9992,2 53935  53.2178 312.6671 0001350  98.8237 261.2909 15.08831633 82002,6917.906,95.438,540.705,538.837,0.0
53935.0,STARLINK-5000,PAYLOAD,2024-03-13 08:14:41,15.08809997,0.0001165,53.2176,309.6962,93.4706,266.642,0.00036974,5.597e-05,0.0,0 STARLINK-5000,1 53935U 22119BB  24073.34353610  .00005597  00000-0  36974-3 0  9999,2 53935  53.2176 309.6962 0001165  93.4706 266.6420 15.08809997 82101,6917.972,95.439,540.643,539.031,0.0
53935.0,STARLINK-5000,PAYLOAD,2024-03-14 08:05:27,15.08843571,0.0001072,53.2188,305.2351,85.518,274.5935,4.44e-05,4.19e-06,0.0,0 STARLINK-5000,1 53935U 22119BB  24074.33712079  .00000419  00000-0  44400-4 0  9999,2 53935  53.2188 305.2351 0001072  85.5180 274.5935 15.08843571 82254,6917.869,95.437,540.476,538.993,0.0
53935.0,STARLINK-5000,PAYLOAD,2024-03-14 20:48:33,15.08838147,8.94e-05,53.216,302.8554,79.3885,280.7208,9.5058e-06,-1.36e-06,0.0,0 STARLINK-5000,1 53935U 22119BB  24074.86704904 -.00000136  00000-0  95058-5 0  9998,2 53935  53.2160 302.8554 0000894  79.3885 280.7208 15.08838147 82330,6917.886,95.438,540.37,539.133,0.0
53935.0,STARLINK-5000,PAYLOAD,2024-03-15 22:14:43,15.08834633,0.0001293,53.2171,298.1007,84.4796,275.6344,0.00010874,1.443e-05,0.0,0 STARLINK-5000,1 53935U 22119BB  24075.92688777  .00001443  00000-0  10874-3 0  9997,2 53935  53.2171 298.1007 0001293  84.4796 275.6344 15.08834633 82918,6917.897,95.438,540.656,538.867,0.0
53935.0,STARLINK-5000,PAYLOAD,2024-03-15 23:50:05,15.08819559,5.94e-05,53.2166,297.7985,85.483,274.623,0.00030865,4.625e-05,0.0,0 STARLINK-5000,1 53935U 22119BB  24075.99312227  .00004625  00000-0  30865-3 0  9995,2 53935  53.2166 297.7985 0000594  85.4830 274.6230 15.08819559 82503,6917.943,95.439,540.219,539.397,0.0
53935.0,STARLINK-5000,PAYLOAD,2024-03-16 22:05:30,15.08834406,0.0001289,53.2164,293.6377,95.0415,265.0725,1.6235e-05,-3e-07,0.0,0 STARLINK-5000,1 53935U 22119BB  24076.92049633 -.00000030  00000-0  16235-4 0  9990,2 53935  53.2164 293.6377 0001289  95.0415 265.0725 15.08834406 83062,6917.897,95.438,540.654,538.871,0.0
53935.0,STARLINK-5000,PAYLOAD,2024-03-17 20:20:54,15.08841671,0.0001478,53.2173,289.4739,74.6458,285.4698,0.0001124,1.501e-05,0.0,0 STARLINK-5000,1 53935U 22119BB  24077.84784955  .00001501  00000-0  11240-3 0  9998,2 53935  53.2173 289.4739 0001478  74.6458 285.4698 15.08841671 82782,6917.875,95.437,540.763,538.718,0.0
53935.0,STARLINK-5000,PAYLOAD,2024-03-17 23:31:40,15.08850705,0.0001779,53.2183,288.8713,64.0517,296.0658,4.2044e-05,3.81e-06,0.0,0 STARLINK-5000,1 53935U 22119BB  24077.98032715  .00000381  00000-0  42044-4 0  9995,2 53935  53.2183 288.8713 0001779  64.0517 296.0658 15.08850705 83223,6917.848,95.437,540.943,538.482,0.0
53935.0,STARLINK-5000,PAYLOAD,2024-03-18 20:11:41,15.08839833,0.0002029,53.219,285.0015,61.9303,298.1894,6.8265e-05,7.98e-06,0.0,0 STARLINK-5000,1 53935U 22119BB  24078.84145273  .00000798  00000-0  68265-4 0  9990,2 53935  53.2190 285.0015 0002029  61.9303 298.1894 15.08839833 83351,6917.881,95.438,541.15,538.342,0.0
